0 COSMOS 1275 DEB
1 12768U 81053DM  13281.67315612  .00000394  00000-0  34330-3 0  3308
2 12768 082.9354 357.1237 0050173 293.4667 190.9559 13.83160354618353
0 COSMOS 1275 DEB
1 12768U 81053DM  13284.19148731  .00000468  00000-0  41017-3 0  3317
2 12768 082.9354 355.2300 0050222 286.1489 130.8850 13.83163302618701
0 COSMOS 1275 DEB
1 12768U 81053DM  13286.50764069  .00000484  00000-0  42450-3 0  3323
2 12768 082.9351 353.4886 0050325 279.4288 144.0885 13.83165446619025
0 COSMOS 1275 DEB
1 12768U 81053DM  13288.61767167  .00000579  00000-0  51038-3 0  3337
2 12768 082.9347 351.9021 0050425 273.3331 210.9009 13.83167727619314
0 COSMOS 1275 DEB
1 12768U 81053DM  13290.64343024  .00000543  00000-0  47804-3 0  3343
2 12768 082.9342 350.3788 0050528 267.4945 218.0858 13.83170407619591
0 COSMOS 1275 DEB
1 12768U 81053DM  13293.16185966  .00000537  00000-0  47178-3 0  3350
2 12768 082.9339 348.4845 0050642 260.2479 158.5180 13.83172872619942
0 COSMOS 1275 DEB
1 12768U 81053DM  13295.47773416  .00000531  00000-0  46622-3 0  3367
2 12768 082.9339 346.7426 0050756 253.5928 170.3481 13.83175486620265
